[{"OBJECT_NAME":"STARLINK-2488","OBJECT_ID":"2021-027BF","EPOCH":"2026-03-10T00:00:02.999808","MEAN_MOTION":15.93969953,"ECCENTRICITY":0.00036497,"INCLINATION":53.0379,"RA_OF_ASC_NODE":106.4809,"ARG_OF_PERICENTER":57.7521,"MEAN_ANOMALY":141.1258,"EPHEMERIS_TYPE":0,"CLASSIFICATION_TYPE":"U","NORAD_CAT_ID":48145,"ELEMENT_SET_NO":999,"REV_AT_EPOCH":593,"BSTAR":0.0014129322,"MEAN_MOTION_DOT":0.00529123,"MEAN_MOTION_DDOT":0.00012350147},{"OBJECT_NAME":"DELTA 1 DEB","OBJECT_ID":"1977-065CN","EPOCH":"2026-03-09T13:02:31.476768","MEAN_MOTION":15.88461792,"ECCENTRICITY":0.0020431,"INCLINATION":28.9807,"RA_OF_ASC_NODE":226.8399,"ARG_OF_PERICENTER":153.7122,"MEAN_ANOMALY":206.4539,"EPHEMERIS_TYPE":0,"CLASSIFICATION_TYPE":"U","NORAD_CAT_ID":10261,"ELEMENT_SET_NO":999,"REV_AT_EPOCH":47725,"BSTAR":0.0034356,"MEAN_MOTION_DOT":0.0101641,"MEAN_MOTION_DDOT":0.00040783}]
